     2.10           N: GPS NAV DATA                         RINEX VERSION / TYPE
teqc  2008Oct2      gpsops              20090108 00:09:33UTCPGM / RUN BY / DATE
Linux 2.4.20-8|Pentium IV|gcc -static|Linux|486/DX+         COMMENT
soc2rnx ver 1.20    gpsops               8-Jan-2009 00:09:21COMMENT
Forced Modulo Decimation to 30 seconds                      COMMENT
GLPS                                    MARKER NAME         COMMENT
42005M002                               MARKER NUMBER       COMMENT
-33801.4662 -6377516.5323 -82154.3508                       COMMENT
                                                            COMMENT
This data is provided as a public service by NASA/JPL.      COMMENT
No warranty is expressed or implied regarding suitability   COMMENT
for use.  For further information, contact:                 COMMENT
Dave Stowers, NASA/JPL m/s 238-600                          COMMENT
4800 Oak Grove Drive, Pasadena CA 91109 USA                 COMMENT
                                                            END OF HEADER
22 09  1  7  1 59 44.0 2.070222981274D-04-6.821210263297D-13 0.000000000000D+00
    2.000000000000D+00 1.300625000000D+02 4.941634410337D-09-2.532911209599D+00
    6.673857569695D-06 4.970470326953D-03 4.310160875320D-06 5.153672880173D+03
    2.663840000000D+05 5.960464477539D-08-3.087481920758D+00-1.676380634308D-08
    9.424394026697D-01 2.864687500000D+02-1.813632145013D+00-8.355348033783D-09
    1.628639267934D-10 1.000000000000D+00 1.513000000000D+03 0.000000000000D+00
    2.000000000000D+00 0.000000000000D+00-1.816079020500D-08 2.000000000000D+00
    2.647500000000D+05
 5 09  1  7  4  0  0.0-5.039726383984D-04-6.355094228638D-11 0.000000000000D+00
    1.160000000000D+02-1.828125000000D+01 5.003422698353D-09-1.735902059974D-01
   -9.853392839432D-07 9.371029678732D-03 8.756294846535D-06 5.153638271332D+03
    2.736000000000D+05-9.126961231232D-08-7.862157707569D-02 1.508742570877D-07
    9.450988341314D-01 2.042500000000D+02 1.295014229992D+00-8.297131323109D-09
    4.846630453041D-10 1.000000000000D+00 1.513000000000D+03 0.000000000000D+00
    4.000000000000D+00 0.000000000000D+00-4.190951585770D-09 1.160000000000D+02
    2.664000000000D+05
 6 09  1  7  3 59 44.0 1.001893542707D-04-1.159605744760D-11 0.000000000000D+00
    8.000000000000D+00-4.562500000000D+00 5.461656071327D-09-4.122684037195D-01
   -2.104789018631D-07 5.628574523143D-03 6.726011633873D-06 5.153701076508D+03
    2.735840000000D+05-9.313225746155D-08 1.018769837910D+00 7.636845111847D-08
    9.333735837620D-01 2.380000000000D+02-1.488144733716D+00-8.433208419838D-09
   -1.175048945505D-10 1.000000000000D+00 1.513000000000D+03 0.000000000000D+00
    2.000000000000D+00 0.000000000000D+00-4.656612873077D-09 8.000000000000D+00
    2.664000000000D+05
12 09  1  7  4  0  0.0-3.277002833784D-04 3.183231456205D-12 0.000000000000D+00
    2.100000000000D+01-1.581250000000D+01 4.491258507516D-09 2.075363456407D+00
   -8.996576070786D-07 3.105810261331D-03 8.447095751762D-06 5.153741374969D+03
    2.736000000000D+05 2.793967723846D-08 1.987517722948D-02 4.470348358154D-08
    9.660789285166D-01 2.182812500000D+02-8.270328353401D-01-7.838183634667D-09
    4.107313943255D-10 1.000000000000D+00 1.513000000000D+03 0.000000000000D+00
    2.000000000000D+00 0.000000000000D+00-1.164153218269D-08 2.100000000000D+01
    2.664000000000D+05
14 09  1  7  3 59 44.0-1.716716215014D-04 5.115907697473D-12 0.000000000000D+00
    2.000000000000D+00-5.700000000000D+01 4.035882396416D-09-2.348709035353D+00
   -2.805143594742D-06 4.465936683118D-03 2.279877662659D-06 5.153564052582D+03
    2.735840000000D+05 5.774199962616D-08-2.043904333528D+00 4.097819328308D-08
    9.887885402459D-01 3.496250000000D+02-2.100896352274D+00-8.091765625946D-09
   -1.157191058795D-10 1.000000000000D+00 1.513000000000D+03 0.000000000000D+00
    2.000000000000D+00 0.000000000000D+00-9.313225746155D-09 2.000000000000D+00
    2.664000000000D+05
18 09  1  7  4  0  0.0-9.553879499435D-05 3.751665644813D-12 0.000000000000D+00
    8.900000000000D+01 1.135937500000D+02 4.978421656959D-09-3.274498778646D-01
    6.040558218956D-06 9.891922003590D-03 4.522502422333D-06 5.153753236771D+03
    2.736000000000D+05 8.754432201385D-08-3.093536100436D+00 1.136213541031D-07
    9.447827692175D-01 2.849687500000D+02-2.438286613659D+00-8.566428254693D-09
    1.132190017402D-10 1.000000000000D+00 1.513000000000D+03 0.000000000000D+00
    2.800000000000D+00 0.000000000000D+00-1.071020960808D-08 8.900000000000D+01
    2.664000000000D+05
21 09  1  7  4  0  0.0 3.501586616039D-05-1.705302565824D-12 0.000000000000D+00
    7.800000000000D+01 6.281250000000D+01 5.021994900531D-09 9.321384200839D-01
    3.451481461525D-06 1.452149078250D-02 9.765848517418D-06 5.153655712128D+03
    2.736000000000D+05-1.043081283569D-07 2.131471543477D+00 1.993030309677D-07
    9.345846458647D-01 1.786562500000D+02-2.656928471781D+00-8.244271978448D-09
   -5.193073455211D-10 1.000000000000D+00 1.513000000000D+03 0.000000000000D+00
    2.000000000000D+00 0.000000000000D+00-1.164153218269D-08 7.800000000000D+01
    2.664000000000D+05
22 09  1  7  3 59 44.0 2.070176415145D-04-6.821210263297D-13 0.000000000000D+00
    3.000000000000D+00 1.200937500000D+02 4.904847163715D-09-1.482449214737D+00
    6.312504410744D-06 4.969981382601D-03 4.142522811890D-06 5.153675613403D+03
    2.735840000000D+05 6.146728992462D-08-3.087541994026D+00 8.195638656616D-08
    9.424401882567D-01 2.907500000000D+02-1.813910659746D+00-8.430351157964D-09
    1.267909956396D-10 1.000000000000D+00 1.513000000000D+03 0.000000000000D+00
    2.000000000000D+00 0.000000000000D+00-1.816079020500D-08 3.000000000000D+00
    2.664000000000D+05
24 09  1  7  4  0  0.0 1.556063070893D-04 3.183231456205D-12 0.000000000000D+00
    1.830000000000D+02 6.337500000000D+01 4.658765484854D-09-4.440063778021D-01
    3.239139914513D-06 7.062090910040D-03 9.573996067047D-06 5.153667373657D+03
    2.736000000000D+05-1.117587089539D-08 2.161216432116D+00-1.136213541031D-07
    9.512534519131D-01 1.895937500000D+02-6.443971347558D-01-8.043549331830D-09
   -2.607251459631D-10 1.000000000000D+00 1.513000000000D+03 0.000000000000D+00
    2.000000000000D+00 0.000000000000D+00-1.396983861923D-09 1.830000000000D+02
    2.664000000000D+05
29 09  1  7  4  0  0.0-1.992098987103D-05 2.614797267597D-12 0.000000000000D+00
    9.300000000000D+01-7.656250000000D+00 4.862702551080D-09 1.001403660276D+00
   -4.824250936508D-07 3.223301609978D-03 7.206574082375D-06 5.153755187988D+03
    2.736000000000D+05-2.235174179077D-08 1.086352400469D+00-4.097819328308D-08
    9.595231859121D-01 2.412187500000D+02-1.343276696180D+00-8.066050269084D-09
   -2.028655930234D-10 1.000000000000D+00 1.513000000000D+03 0.000000000000D+00
    2.000000000000D+00 0.000000000000D+00-8.847564458847D-09 9.300000000000D+01
    2.664000000000D+05
30 09  1  7  3 59 44.0 1.182612031698D-04 2.387423592154D-12 0.000000000000D+00
    1.000000000000D+00-1.600000000000D+01 4.908418741057D-09-7.103312651313D-01
   -7.916241884232D-07 1.115683955140D-02 8.668750524521D-06 5.153652492523D+03
    2.735840000000D+05-1.341104507446D-07-2.558717159126D-02 1.471489667892D-07
    9.510404612812D-01 2.092812500000D+02 1.414395440413D+00-8.271058808513D-09
    4.810914679621D-10 1.000000000000D+00 1.513000000000D+03 0.000000000000D+00
    2.000000000000D+00 0.000000000000D+00-7.916241884232D-09 1.000000000000D+00
    2.664000000000D+05
31 09  1  7  4  0  0.0-4.669139161706D-05-1.477928890381D-12 0.000000000000D+00
    5.800000000000D+01-1.277187500000D+02 4.041596920163D-09 1.792763374305D+00
   -6.593763828278D-06 7.096337270923D-03 8.927658200264D-06 5.153621187210D+03
    2.736000000000D+05 1.136213541031D-07-1.033786547165D+00-3.352761268616D-08
    9.708877816246D-01 2.079687500000D+02-1.213400085750D+00-7.744608308308D-09
    2.392956819114D-11 1.000000000000D+00 1.513000000000D+03 0.000000000000D+00
    4.000000000000D+00 0.000000000000D+00-1.303851604462D-08 5.800000000000D+01
    2.664000000000D+05
16 09  1  7  4  0  0.0 8.376315236092D-05-2.614797267597D-12 0.000000000000D+00
    5.800000000000D+01-2.156250000000D+01 4.399468969827D-09-4.541833810066D-01
   -1.139938831329D-06 4.933427437209D-03 8.799135684967D-06 5.153734975815D+03
    2.736000000000D+05 5.960464477539D-08 3.659508739514D-02-9.499490261078D-08
    9.676214351910D-01 2.145937500000D+02-3.864694279229D-01-7.853541417238D-09
    4.582333729736D-10 1.000000000000D+00 1.513000000000D+03 0.000000000000D+00
    2.000000000000D+00 0.000000000000D+00-9.778887033463D-09 5.800000000000D+01
    2.670000000000D+05
 3 09  1  7  3 59 44.0 3.353934735060D-04 5.343281372916D-12 0.000000000000D+00
    3.200000000000D+01-6.875000000000D+00 5.574517915332D-09-2.956384146775D+00
   -4.116445779800D-07 1.157453435007D-02 6.347894668579D-06 5.153716279984D+03
    2.735840000000D+05 7.264316082001D-08 9.523077009011D-01-1.359730958939D-07
    9.259024289469D-01 2.381875000000D+02 8.874619976687D-01-8.254629552740D-09
   -5.964534161075D-11 1.000000000000D+00 1.513000000000D+03 0.000000000000D+00
    2.000000000000D+00 0.000000000000D+00-4.190951585770D-09 3.200000000000D+01
    2.695800000000D+05
18 09  1  7  3 59 44.0-9.553879499435D-05 3.751665644813D-12 0.000000000000D+00
    6.000000000000D+00 1.135937500000D+02 4.978421656959D-09-3.297837471482D-01
    6.040558218956D-06 9.891926893033D-03 4.522502422333D-06 5.153753236771D+03
    2.735840000000D+05 8.754432201385D-08-3.093535962921D+00 1.136213541031D-07
    9.447827779950D-01 2.849687500000D+02-2.438286350334D+00-8.566428254693D-09
    1.132190017402D-10 1.000000000000D+00 1.513000000000D+03 0.000000000000D+00
    2.000000000000D+00 0.000000000000D+00-1.071020960808D-08 6.000000000000D+00
    2.704500000000D+05
